IRIDIUM 39              
1 25042U 97069D   25107.84940296  .00001523  00000+0  39467-3 0  9993
2 25042  86.3921 236.9821 0019235 143.5202 216.7316 14.49119947440487
IRIDIUM 38              
1 25043U 97069E   25107.91190564  .00000964  00000+0  31226-3 0  9990
2 25043  86.3923 258.5108 0000804  28.2892 331.8350 14.38046297437550
IRIDIUM 42              
1 25077U 97077A   25107.84417877  .00000898  00000+0  30101-3 0  9994
2 25077  86.3918 264.6397 0001613  75.3917 284.7459 14.36286804432536
IRIDIUM 44              
1 25078U 97077B   25107.89198366  .00000911  00000+0  28207-3 0  9999
2 25078  86.3947 246.6898 0001616 152.5413 207.5872 14.40177092435052
IRIDIUM 45              
1 25104U 97082A   25107.86448035  .00021746  00000+0  82991-3 0  9992
2 25104  86.3569  77.1280 0121492 195.6577 164.0898 15.19802645443126
IRIDIUM 24              
1 25105U 97082B   25107.45665475  .00001065  00000+0  31852-3 0  9999
2 25105  86.3857 106.0672 0009082 281.5813  78.4367 14.42019308434469
IRIDIUM 51              
1 25262U 98018A   25107.89446536  .00040365  00000+0  10146-2 0  9994
2 25262  86.3821  85.5813 0099403 120.1996 240.9147 15.34753805437989
IRIDIUM 57              
1 25273U 98019B   25107.68263582  .00000604  00000+0  20205-3 0  9992
2 25273  86.4013 170.5996 0002202  93.6674 266.4775 14.35844264416314
