<?xml version="1.0" encoding="UTF-8"?>
<ndm xmlns:xsi="http://www.w3.org/2001/XMLSchema-instance" xsi:noNamespaceSchemaLocation="https://sanaregistry.org/r/ndmxml_unqualified/ndmxml-2.0.0-master-2.0.xsd">
<omm id="CCSDS_OMM_VERS" version="2.0">
<header><CREATION_DATE/><ORIGINATOR/></header><body><segment><metadata><OBJECT_NAME>IRIDIUM 39</OBJECT_NAME><OBJECT_ID>1997-069D</OBJECT_ID><CENTER_NAME>EARTH</CENTER_NAME><REF_FRAME>TEME</REF_FRAME><TIME_SYSTEM>UTC</TIME_SYSTEM><MEAN_ELEMENT_THEORY>SGP4</MEAN_ELEMENT_THEORY></metadata><data><meanElements><EPOCH>2025-04-17T20:23:08.415744</EPOCH><MEAN_MOTION>14.49119947</MEAN_MOTION><ECCENTRICITY>.0019235</ECCENTRICITY><INCLINATION>86.3921</INCLINATION><RA_OF_ASC_NODE>236.9821</RA_OF_ASC_NODE><ARG_OF_PERICENTER>143.5202</ARG_OF_PERICENTER><MEAN_ANOMALY>216.7316</MEAN_ANOMALY></meanElements><tleParameters><EPHEMERIS_TYPE>0</EPHEMERIS_TYPE><CLASSIFICATION_TYPE>U</CLASSIFICATION_TYPE><NORAD_CAT_ID>25042</NORAD_CAT_ID><ELEMENT_SET_NO>999</ELEMENT_SET_NO><REV_AT_EPOCH>44048</REV_AT_EPOCH><BSTAR>.39467E-3</BSTAR><MEAN_MOTION_DOT>.1523E-4</MEAN_MOTION_DOT><MEAN_MOTION_DDOT>0</MEAN_MOTION_DDOT></tleParameters></data></segment></body></omm>
<omm id="CCSDS_OMM_VERS" version="2.0">
<header><CREATION_DATE/><ORIGINATOR/></header><body><segment><metadata><OBJECT_NAME>IRIDIUM 38</OBJECT_NAME><OBJECT_ID>1997-069E</OBJECT_ID><CENTER_NAME>EARTH</CENTER_NAME><REF_FRAME>TEME</REF_FRAME><TIME_SYSTEM>UTC</TIME_SYSTEM><MEAN_ELEMENT_THEORY>SGP4</MEAN_ELEMENT_THEORY></metadata><data><meanElements><EPOCH>2025-04-17T21:53:08.647296</EPOCH><MEAN_MOTION>14.38046297</MEAN_MOTION><ECCENTRICITY>.0000804</ECCENTRICITY><INCLINATION>86.3923</INCLINATION><RA_OF_ASC_NODE>258.5108</RA_OF_ASC_NODE><ARG_OF_PERICENTER>28.2892</ARG_OF_PERICENTER><MEAN_ANOMALY>331.8350</MEAN_ANOMALY></meanElements><tleParameters><EPHEMERIS_TYPE>0</EPHEMERIS_TYPE><CLASSIFICATION_TYPE>U</CLASSIFICATION_TYPE><NORAD_CAT_ID>25043</NORAD_CAT_ID><ELEMENT_SET_NO>999</ELEMENT_SET_NO><REV_AT_EPOCH>43755</REV_AT_EPOCH><BSTAR>.31226E-3</BSTAR><MEAN_MOTION_DOT>.964E-5</MEAN_MOTION_DOT><MEAN_MOTION_DDOT>0</MEAN_MOTION_DDOT></tleParameters></data></segment></body></omm>
<omm id="CCSDS_OMM_VERS" version="2.0">
<header><CREATION_DATE/><ORIGINATOR/></header><body><segment><metadata><OBJECT_NAME>IRIDIUM 42</OBJECT_NAME><OBJECT_ID>1997-077A</OBJECT_ID><CENTER_NAME>EARTH</CENTER_NAME><REF_FRAME>TEME</REF_FRAME><TIME_SYSTEM>UTC</TIME_SYSTEM><MEAN_ELEMENT_THEORY>SGP4</MEAN_ELEMENT_THEORY></metadata><data><meanElements><EPOCH>2025-04-17T20:15:37.045728</EPOCH><MEAN_MOTION>14.36286804</MEAN_MOTION><ECCENTRICITY>.0001613</ECCENTRICITY><INCLINATION>86.3918</INCLINATION><RA_OF_ASC_NODE>264.6397</RA_OF_ASC_NODE><ARG_OF_PERICENTER>75.3917</ARG_OF_PERICENTER><MEAN_ANOMALY>284.7459</MEAN_ANOMALY></meanElements><tleParameters><EPHEMERIS_TYPE>0</EPHEMERIS_TYPE><CLASSIFICATION_TYPE>U</CLASSIFICATION_TYPE><NORAD_CAT_ID>25077</NORAD_CAT_ID><ELEMENT_SET_NO>999</ELEMENT_SET_NO><REV_AT_EPOCH>43253</REV_AT_EPOCH><BSTAR>.30101E-3</BSTAR><MEAN_MOTION_DOT>.898E-5</MEAN_MOTION_DOT><MEAN_MOTION_DDOT>0</MEAN_MOTION_DDOT></tleParameters></data></segment></body></omm>
<omm id="CCSDS_OMM_VERS" version="2.0">
<header><CREATION_DATE/><ORIGINATOR/></header><body><segment><metadata><OBJECT_NAME>IRIDIUM 44</OBJECT_NAME><OBJECT_ID>1997-077B</OBJECT_ID><CENTER_NAME>EARTH</CENTER_NAME><REF_FRAME>TEME</REF_FRAME><TIME_SYSTEM>UTC</TIME_SYSTEM><MEAN_ELEMENT_THEORY>SGP4</MEAN_ELEMENT_THEORY></metadata><data><meanElements><EPOCH>2025-04-17T21:24:27.388224</EPOCH><MEAN_MOTION>14.40177092</MEAN_MOTION><ECCENTRICITY>.0001616</ECCENTRICITY><INCLINATION>86.3947</INCLINATION><RA_OF_ASC_NODE>246.6898</RA_OF_ASC_NODE><ARG_OF_PERICENTER>152.5413</ARG_OF_PERICENTER><MEAN_ANOMALY>207.5872</MEAN_ANOMALY></meanElements><tleParameters><EPHEMERIS_TYPE>0</EPHEMERIS_TYPE><CLASSIFICATION_TYPE>U</CLASSIFICATION_TYPE><NORAD_CAT_ID>25078</NORAD_CAT_ID><ELEMENT_SET_NO>999</ELEMENT_SET_NO><REV_AT_EPOCH>43505</REV_AT_EPOCH><BSTAR>.28207E-3</BSTAR><MEAN_MOTION_DOT>.911E-5</MEAN_MOTION_DOT><MEAN_MOTION_DDOT>0</MEAN_MOTION_DDOT></tleParameters></data></segment></body></omm>
<omm id="CCSDS_OMM_VERS" version="2.0">
<header><CREATION_DATE/><ORIGINATOR/></header><body><segment><metadata><OBJECT_NAME>IRIDIUM 45</OBJECT_NAME><OBJECT_ID>1997-082A</OBJECT_ID><CENTER_NAME>EARTH</CENTER_NAME><REF_FRAME>TEME</REF_FRAME><TIME_SYSTEM>UTC</TIME_SYSTEM><MEAN_ELEMENT_THEORY>SGP4</MEAN_ELEMENT_THEORY></metadata><data><meanElements><EPOCH>2025-04-17T20:44:51.102240</EPOCH><MEAN_MOTION>15.19802645</MEAN_MOTION><ECCENTRICITY>.0121492</ECCENTRICITY><INCLINATION>86.3569</INCLINATION><RA_OF_ASC_NODE>77.1280</RA_OF_ASC_NODE><ARG_OF_PERICENTER>195.6577</ARG_OF_PERICENTER><MEAN_ANOMALY>164.0898</MEAN_ANOMALY></meanElements><tleParameters><EPHEMERIS_TYPE>0</EPHEMERIS_TYPE><CLASSIFICATION_TYPE>U</CLASSIFICATION_TYPE><NORAD_CAT_ID>25104</NORAD_CAT_ID><ELEMENT_SET_NO>999</ELEMENT_SET_NO><REV_AT_EPOCH>44312</REV_AT_EPOCH><BSTAR>.82991E-3</BSTAR><MEAN_MOTION_DOT>.21746E-3</MEAN_MOTION_DOT><MEAN_MOTION_DDOT>0</MEAN_MOTION_DDOT></tleParameters></data></segment></body></omm>
<omm id="CCSDS_OMM_VERS" version="2.0">
<header><CREATION_DATE/><ORIGINATOR/></header><body><segment><metadata><OBJECT_NAME>IRIDIUM 24</OBJECT_NAME><OBJECT_ID>1997-082B</OBJECT_ID><CENTER_NAME>EARTH</CENTER_NAME><REF_FRAME>TEME</REF_FRAME><TIME_SYSTEM>UTC</TIME_SYSTEM><MEAN_ELEMENT_THEORY>SGP4</MEAN_ELEMENT_THEORY></metadata><data><meanElements><EPOCH>2025-04-17T10:57:34.970400</EPOCH><MEAN_MOTION>14.42019308</MEAN_MOTION><ECCENTRICITY>.0009082</ECCENTRICITY><INCLINATION>86.3857</INCLINATION><RA_OF_ASC_NODE>106.0672</RA_OF_ASC_NODE><ARG_OF_PERICENTER>281.5813</ARG_OF_PERICENTER><MEAN_ANOMALY>78.4367</MEAN_ANOMALY></meanElements><tleParameters><EPHEMERIS_TYPE>0</EPHEMERIS_TYPE><CLASSIFICATION_TYPE>U</CLASSIFICATION_TYPE><NORAD_CAT_ID>25105</NORAD_CAT_ID><ELEMENT_SET_NO>999</ELEMENT_SET_NO><REV_AT_EPOCH>43446</REV_AT_EPOCH><BSTAR>.31852E-3</BSTAR><MEAN_MOTION_DOT>.1065E-4</MEAN_MOTION_DOT><MEAN_MOTION_DDOT>0</MEAN_MOTION_DDOT></tleParameters></data></segment></body></omm>
<omm id="CCSDS_OMM_VERS" version="2.0">
<header><CREATION_DATE/><ORIGINATOR/></header><body><segment><metadata><OBJECT_NAME>IRIDIUM 51</OBJECT_NAME><OBJECT_ID>1998-018A</OBJECT_ID><CENTER_NAME>EARTH</CENTER_NAME><REF_FRAME>TEME</REF_FRAME><TIME_SYSTEM>UTC</TIME_SYSTEM><MEAN_ELEMENT_THEORY>SGP4</MEAN_ELEMENT_THEORY></metadata><data><meanElements><EPOCH>2025-04-17T21:28:01.807104</EPOCH><MEAN_MOTION>15.34753805</MEAN_MOTION><ECCENTRICITY>.0099403</ECCENTRICITY><INCLINATION>86.3821</INCLINATION><RA_OF_ASC_NODE>85.5813</RA_OF_ASC_NODE><ARG_OF_PERICENTER>120.1996</ARG_OF_PERICENTER><MEAN_ANOMALY>240.9147</MEAN_ANOMALY></meanElements><tleParameters><EPHEMERIS_TYPE>0</EPHEMERIS_TYPE><CLASSIFICATION_TYPE>U</CLASSIFICATION_TYPE><NORAD_CAT_ID>25262</NORAD_CAT_ID><ELEMENT_SET_NO>999</ELEMENT_SET_NO><REV_AT_EPOCH>43798</REV_AT_EPOCH><BSTAR>.10146E-2</BSTAR><MEAN_MOTION_DOT>.40365E-3</MEAN_MOTION_DOT><MEAN_MOTION_DDOT>0</MEAN_MOTION_DDOT></tleParameters></data></segment></body></omm>
<omm id="CCSDS_OMM_VERS" version="2.0">
<header><CREATION_DATE/><ORIGINATOR/></header><body><segment><metadata><OBJECT_NAME>IRIDIUM 57</OBJECT_NAME><OBJECT_ID>1998-019B</OBJECT_ID><CENTER_NAME>EARTH</CENTER_NAME><REF_FRAME>TEME</REF_FRAME><TIME_SYSTEM>UTC</TIME_SYSTEM><MEAN_ELEMENT_THEORY>SGP4</MEAN_ELEMENT_THEORY></metadata><data><meanElements><EPOCH>2025-04-17T16:22:59.734848</EPOCH><MEAN_MOTION>14.35844264</MEAN_MOTION><ECCENTRICITY>.0002202</ECCENTRICITY><INCLINATION>86.4013</INCLINATION><RA_OF_ASC_NODE>170.5996</RA_OF_ASC_NODE><ARG_OF_PERICENTER>93.6674</ARG_OF_PERICENTER><MEAN_ANOMALY>266.4775</MEAN_ANOMALY></meanElements><tleParameters><EPHEMERIS_TYPE>0</EPHEMERIS_TYPE><CLASSIFICATION_TYPE>U</CLASSIFICATION_TYPE><NORAD_CAT_ID>25273</NORAD_CAT_ID><ELEMENT_SET_NO>999</ELEMENT_SET_NO><REV_AT_EPOCH>41631</REV_AT_EPOCH><BSTAR>.20205E-3</BSTAR><MEAN_MOTION_DOT>.604E-5</MEAN_MOTION_DOT><MEAN_MOTION_DDOT>0</MEAN_MOTION_DDOT></tleParameters></data></segment></body></omm>

</ndm>
